0000008901
SAID32 WADL 050600
METAR WADL 050600Z 15008KT 100V210 9000 SCT016 33/25 Q1008 NOSIG=