0000011001
SAID32 WADL 060730
METAR WADL 060730Z 14007KT 090V170 7000 FEW015CB SCT016 29/24 Q1008 NOSIG RMK CB TO N=