0000008101
SAID32 WADL 050830
METAR WADL 050830Z 13012KT 8000 BKN016 30/23 Q1008 NOSIG=