0000008101
SAID32 WADL 051030
METAR WADL 051030Z 13004KT 8000 SCT016 27/25 Q1009 NOSIG=