0000008801
SAID32 WADL 050900
METAR WADL 050900Z 13009KT 8000 SCT016 BKN030 29/24 Q1008 NOSIG=