0000008101
SAID32 WADL 060030
METAR WADL 060030Z 12007KT 9000 FEW016 29/25 Q1011 NOSIG=