0000008901
SAID32 WADL 050430
METAR WADL 050430Z 14009KT 110V190 9000 SCT016 33/24 Q1009 NOSIG=