0000008101
SAID32 WADL 052330
METAR WADL 052330Z 14007KT 7000 SCT016 27/25 Q1011 NOSIG=