0000008101
SAID32 WADL 052230
METAR WADL 052230Z 13003KT 7000 BKN016 25/24 Q1010 NOSIG=