0000008901
SAID32 WADL 060300
METAR WADL 060300Z 16009KT 120V180 9000 FEW016 32/25 Q1011 NOSIG=