0000008901
SAID32 WADL 060900
METAR WADL 060900Z 36003KT 330V040 8000 SCT016 27/22 Q1008 NOSIG=