0000008901
SAID32 WADL 050530
METAR WADL 050530Z 15010KT 110V170 9000 SCT016 32/24 Q1009 NOSIG=