0000008101
SAID32 WADL 051230
METAR WADL 051230Z VRB02KT 7000 SCT016 27/24 Q1010 NOSIG=