0000008901
SAID32 WADL 060200
METAR WADL 060200Z 09005KT 030V140 9000 FEW016 31/25 Q1011 NOSIG=