0000011101
SAID32 WADL 060700
METAR WADL 060700Z 15012KT 120V190 7000 FEW015CB SCT016 29/24 Q1008 NOSIG RMK CB TO NW=