0000008101
SAID32 WADL 061030
METAR WADL 061030Z 32001KT 7000 FEW016 25/22 Q1009 NOSIG=