0000011101
SAID32 WADL 060830
METAR WADL 060830Z 34005KT 290V030 6000 FEW015CB BKN016 27/22 Q1008 NOSIG RMK CB TO NW=