0000008101
SAID32 WADL 051330
METAR WADL 051330Z 14004KT 7000 SCT016 26/24 Q1011 NOSIG=