0000008901
SAID32 WADL 060130
METAR WADL 060130Z 13008KT 080V150 9000 FEW016 30/24 Q1011 NOSIG=