0000008901
SAID32 WADL 060930
METAR WADL 060930Z 32003KT 290V010 8000 SCT016 26/22 Q1009 NOSIG=