0000008101
SAID32 WADL 051300
METAR WADL 051300Z 12002KT 7000 SCT016 26/24 Q1011 NOSIG=