0000008101
SAID32 WADL 061000
METAR WADL 061000Z 28004KT 7000 SCT016 26/22 Q1009 NOSIG=