0000008101
SAID32 WADL 052300
METAR WADL 052300Z VRB02KT 7000 SCT016 26/25 Q1010 NOSIG=