0000008101
SAID32 WADL 051130
METAR WADL 051130Z 13005KT 8000 SCT016 27/24 Q1010 NOSIG=