0000008101
SAID32 WADL 051000
METAR WADL 051000Z 15006KT 8000 SCT016 28/24 Q1009 NOSIG=