0000008101
SAID32 WADL 052100
METAR WADL 052100Z 12001KT 7000 FEW016 25/24 Q1009 NOSIG=