0000008101
SAID32 WADL 051400
METAR WADL 051400Z 12003KT 7000 SCT016 25/24 Q1011 NOSIG=