0000008901
SAID32 WADL 060230
METAR WADL 060230Z 12006KT 060V150 9000 FEW016 32/24 Q1011 NOSIG=