0000008101
SAID32 WADL 051430
METAR WADL 051430Z 11002KT 7000 SCT016 25/24 Q1011 NOSIG=