0000008901
SAID32 WADL 050800
METAR WADL 050800Z 14010KT 110V170 8000 BKN016 30/24 Q1008 NOSIG=