0000008101
SAID32 WADL 061100
METAR WADL 061100Z 00000KT 7000 FEW016 25/23 Q1010 NOSIG=