0000010301
SAID32 WADL 060630
METAR WADL 060630Z 14013KT 7000 FEW015CB SCT016 31/24 Q1008 NOSIG RMK CB TO NW=