0000008101
SAID32 WADL 060400
METAR WADL 060400Z 15009KT 9000 SCT016 32/24 Q1010 NOSIG=