0000008101
SAID32 WADL 050730
METAR WADL 050730Z 14010KT 8000 BKN016 30/23 Q1008 NOSIG=