0000008801
SAID32 WADL 050930
METAR WADL 050930Z 13008KT 8000 SCT016 BKN030 28/24 Q1008 NOSIG=