0000011001
SAID32 WADL 060800
METAR WADL 060800Z 13005KT 070V170 6000 FEW015CB BKN016 29/24 Q1008 NOSIG RMK CB TO N=