0000008101
SAID32 WADL 060000
METAR WADL 060000Z 14007KT 9000 SCT016 28/25 Q1011 NOSIG=