SAID33 WAQQ 220300
METAR WAQQ 220300Z 18005KT 9999 SCT015 30/27 Q1012 NOSIG=