SAID32 WIDN 220300
METAR WIDN 220300Z 09003KT 9999 SCT017 30/25 Q1012 NOSIG=