SAID32 WIPP 220300
METAR WIPP 220300Z VRB02KT 6000 SCT013 26/25 Q1012 NOSIG=