SAID32 WAHI 220300
METAR WAHI 220300Z 29005KT 240V320 9999 FEW020 30/23 Q1012 NOSIG=