SAID35 WAGB 220300
METAR WAGB 220300Z 24005KT 9999 SCT012 30/24 Q1012 NOSIG=