SAID31 WIMM 220300
METAR WIMM 220300Z 15009KT 9999 SCT016 30/27 Q1011 NOSIG=