SAID33 WAQQ 220330
METAR WAQQ 220330Z 07004KT 9999 SCT015 29/26 Q1011 NOSIG=