SAID40 WADS 220300
METAR WADS 220300Z 16005KT 090V220 9999 SCT020 32/25 Q1010 NOSIG=