SAID35 WIDS 220300
METAR WIDS 220300Z 23004KT 7000 FEW017 28/26 Q1012 RERA=