SAID40 WIDM 220300
METAR WIDM 220300Z 11006KT 8000 BKN018 32/28 Q1011 NOSIG=