SAID31 WIDD 220300								
METAR WIDD 220300Z 11005KT 9999 SCT014 30/25 Q1014 NOSIG=