SAID31 WADD 220300
METAR WADD 220300Z 17008KT 9999 BKN016 30/26 Q1012 NOSIG=