SAID35 WIMA 220300
METAR WIMA 220300Z 21005KT 8000 FEW015CB FEW017 29/25 Q1012=