SAID32 WIDN 220330
METAR WIDN 220330Z 13003KT 9999 SCT017 30/25 Q1011 NOSIG=