SAID40 WABO 220300
METAR WABO 220300Z 16003KT 8000 BKN013 29/24 Q1008 NOSIG=