SPID40 WAES 220328
SPECI WAES 220328Z 25002KT 7000 -RA FEW017CB SCT018 31/26 Q1010=