SAID32 WAMM 220300
METAR WAMM 220300Z 28005KT 9999 FEW020 32/25 Q1013 NOSIG=