SAID40 WAPS 220300
METAR WAPS 220300Z 24006KT 9999 FEW015TCU FEW018 30/26 Q1009=