SAID40 WATE 220400
METAR WATE 220400Z 25007KT 8000 SCT016 31/25 Q1010 NOSIG=