SAID35 WARI 220300Z
METAR WARI 220300Z 19008KT 8000 SCT018 31/25 Q1013 NOSIG=