SAID32 WIPP 220400
METAR WIPP 220400Z 36002KT 9999 SCT014 28/26 Q1011 NOSIG=