SAID31 WADD 220400
METAR WADD 220400Z 19009KT 150V210 9999 SCT016 31/27 Q1011 NOSIG=