SAID33 WAPP 220400
METAR WAPP 220400Z 060009KT 7000 -RA FEW016CB SCT017 27/26 Q1009 NOSIG RMK CB TO NE=