SAID35 WAPF 220400
METAR WAPF 220400Z 26008KT 9999 SCT018 31/26 Q1008 NOSIG=