SAID31 WIDD 220400								
METAR WIDD 220400Z 08004KT 9999 SCT014 31/25 Q1013 NOSIG=