SAID35 WICM 220400
METAR WICM 220400Z 14006KT 6000  SCT016 30/20 Q1014 RMK NOSIG=