SAID40 WAEW 220400
METAR WAEW 220400Z 30009KT 9000 FEW017CB FEW018 31/25 Q1009 RMK CB AND RA TO ENE=