SAID33 WAPP 220330
METAR WAPP 220330Z VRB02KT 7000 -RA FEW016CB SCT017 30/25 Q1009 NOSIG RMK CB TO NE=