SAID33 WAJJ 220300
METAR WAJJ 220300Z 22005KT 200V260 9999 FEW012 30/24 Q1008=