SAID40 WASK 220400
METAR WASK 220400Z 31003KT 9999 FEW015CB SCT016 34/26 Q1007 RMK CBAT W NOSIG=