SAID33 WAKK 220330
METAR WAKK 220330Z 20007KT 9999 FEW014CB BKN016 29/25 Q1008 NOSIG=