SAID40 WIMK 220300
METAR WIMK 220300Z 12005KT 7000 SCT020 30/24 Q1011 NOSIG=