SAID32 WAMM 220330
METAR WAMM 220330Z 27005KT 9999 FEW020 32/24 Q1013 NOSIG=