[11.03, 22/4/2025] +62 811-490-747: SNID55 WAYY 220400
AAXX 22044
97796 42460 70702 10318 20253 30043 40088 85562 333 56000 85614 87362

SAID40 220400
METAR WAYY 220400Z 19002KT 9999 BKN014 332/25 Q1009 NOSIG=