SAID40 WAVV 220330
METAR WAVV 220330Z VRB02KT 9999 SCT020 23/16 Q1018 NOSIG=