SAID35 WIMA 220400
METAR WIMA 220400Z 24002KT 7000 -RA FEW015CB FEW017 29/25 Q1012=