SAID35 WILM 220330
METAR WILM 220330Z 30004KT 8000 FEW016 29/25 Q1010 NOSIG=