SAID35 WAPF 220300
METAR WAPF 220300Z 24007KT 9999 SCT018 30/26 Q1009 NOSIG=