SAID40 WITN 220400
METAR WITN 220400Z 00000KT 8000 SCT020 31/25 Q1013 NOSIG=