SAID32 WAMM 220400
METAR WAMM 220400Z 27006KT 210V340 9999 FEW020 32/23 Q1012 NOSIG=