METAR WASK 220300Z 30013KT 9999 FEW016 33/26 Q1009 NOSIG=