SAID33 WAPP 220300
METAR WAPP 220300Z 21006KT 9999 SCT017 30/26 Q1009 NOSIG=