SAID40 WIRR 220400
METAR WIRR 220400Z 25007KT 9999 FEW020 32/22 Q1012 NOSIG=