SAID31 WIMM 181530
METAR WIMM 181530Z 22002KT 6000 SCT018 28/28 Q1009 NOSIG=