SAID34 WALS 181530
METAR  WALS 181530Z 25001KT 7000 SCT018 25/25 Q1009 NOSIG=