SAID40 WIME 181530
METAR WME 181530Z 27004KT 8000 SCT018 27/22 Q1011 NOSIG=