SAID33 WILL 181530 
METAR WILL 181530Z 20002KT 8000 -TSRA FEW008CB BKN012 24/24 Q1010 TEMPO TL1600 2000 TSRA=