SAID35 WAGB 181530
METAR WAGB 181530Z 00000KT 7000 BKN011 26/25 Q1010 NOSIG=