SAID32 WAMM 181500
METAR WAMM 181500Z VRB02KT 9999 SCT020 25/24 Q1012 NOSIG=