SAID31 WIMM 181500
METAR WIMM 181500Z 23002KT 6000 SCT018 28/28 Q1009 NOSIG=