SAID40 WAKT 181400
METAR WAKT 181400Z 00000KT 5000 FEW008CB BKN009 24/23 Q1010 NOSIG=