SAID40 WIMB 181500
METAR WIMB 181500Z 00000KT 6000 FEW016 26/25 Q1009 NOSIG=