SAID31 WABB 181430
METAR WABB 181430Z 36003KT 270V360 9999 FEW014CB SCT015 SCT100 26/25 Q1010 NOSIG RMK CB AT N=