SAID40 WIOP 181500
METAR WIOP 181500Z 00000KT 5000 HZ SCT010 25/25 Q1011=