SAID31 WARR 181400
METAR WARR 181400Z 25005KT 8000 FEW020 26/25 Q1009 NOSIG=