SAID40 WICC 181500
METAR WICC 181500Z 00000KT 4000 HZ SCT018 21/20 Q1015 NOSIG=