SAID31 WABB 181500
METAR WABB 181500Z 01005KT 010V260 9999 SCT015 SCT100 26/25 Q1009 NOSIG=