SAID40 WASK 181500
METAR WASK 181500Z 08005KT 6000 FEW015CB SCT017 26/25 Q1009 NOSIG=