SAID33 WAPP 181400
METAR WAPP 181400Z 35005KT 9999 FEW016CB SCT017 26/25 Q1009 RERA NOSIG RMK CB TO NW=