SAID40 WAPU 181500
METAR WAPU 181500Z 17007KT 5000 -TSRA FEW014CB SCT015 26/26 Q1010=