SAID35 WIMA 181300
METAR WIMA 181300Z 00000KT 6000 FEW017 29/27 Q1008=