SAID35 WIHJ 181400
METAR WIHJ 181400Z 00000KT 5000 HZ FEW018 27/24 Q1009 RMK NOSIG

SNID54 WAFW 181400
AAXX 18144
97086 42560 43104 10266 20248 30074 40095 82531                 
333 56000 82620=