SAID31 WIHH 181500
METAR WIHH 161500Z 14004KT 7000 SCT018 26/25 Q1009 RMK RA TO NE - E=