SAID33 WAKK 181330
METAR WAKK 181330Z 31006KT 8000 SCT015 28/24 Q1009=