SAID40 WIDO 181400
METAR WIDO 181400Z 00000KT 7000 SCT016 26/24 Q1008 NOSIG

SMID52 WICC 181400
AAXX 18144 
96781 42440 82903 10228 20217 39295 40155 84571 
  333 56000 83618=