SAID33 WILL 181500 
METAR WILL  181500Z 17002KT 4000 -TSRA FEW008CB BKN012 24/24 Q1010 TEMPO TL1600 2000 TSRA RMK CB OVER THE FIELD=