SAID40 WARD 181330
METAR WARD 181330Z VRB01KT 8000 SCT020 25/24 Q1010 NOSIG=