SAID31 WADD 181430
METAR WADD 181430Z 31007KT 270V040 9999 TS FEW014CB SCT015 28/27 Q1009 TEMPO TL1530 TS=