SAID30 WIHJ 181500
METAR WIHJ 151500Z 00000KT 4000 HZ FEW018 27/24 Q1009 RMK NOSIH=