SAID40 WIMB 181400
METAR WIMB 181400Z 00000KT 6000 FEW016 27/25 Q1009 NOSIG=