SAID40 WAGB 181300
METAR WAGB 181300Z 00000KT 7000 SCT011 26/25 Q1010 NOSIG=