SAID33 WAKK 181400
METAR WAKK 181400Z 31005KT 8000 SCT015 28/24 Q1009=