SAID33 WAKK 181500
METAR WAKK 181500Z 34006KT 8000 SCT015 26/25 Q1008=