SAID32 WIDN181500
METAR WIDN 181500Z 01002KT 9999 FEW017 28/25 Q1009 NOSIG=