SAID33 WILL 181400
METAR WILL 181400Z 35012KT 2000 TSRA FEW008CB BKN012 24/24 Q1011 TEMPO TL1500 5000 TSRA RMK CB OVER THE FIELD=