SAID32 WIBB 181330
METAR WIBB 181330Z 04005KT 8000 NSC 29/26 Q1006 NOSIG=