SAID35 WIMA 181400
METAR WIMA 181400Z 00000KT 6000 FEW017 28/27 Q1008=