SAID40 WAWB 181500
METAR WAWB 181500Z 22008KT 3000 -TSRA FEW017CB BKN018 26/26 Q1010 NOSIG=