SAID31 WADD 181330
METAR WADD 181330Z 09002KT 9999 SCT016 28/27 Q1009 NOSIG=