SAID33 WAPP 181500
METAR WAPP 181500Z 27005KT 9999 FEW016CB SCT017 27/25 Q1009 NOSIG RMK CB TO NW=