SAID35 WIMA 181500
METAR WIMA 181500Z 05005KT 5000 -RA FEW017 27/25 Q1009=