SAID40 WAEW 181600
METAR WAEW 181600Z 02003KT 9000 FEW018 26/25 Q1008=