SAID40 WARA 181400
METAR WARA 181400Z 24002KT 5000 BR SCT016 24/22 Q1013 NOSIG=