SAID35 WAGB 181500
METAR WAGB 181500Z 00000KT 7000 BKN011 26/25 Q1011=