SAID35 WATR 181300
METAR WATR 181300Z 00000KT 8000 BKN018 25/25 Q1009=