SAID99 TEST 170700
METAR WIOS 172330Z 13004KT 3000 -DZ BKN013 23/23 Q1011 NOSIG=