SAID40 WADB 181430
METAR WADB 181430Z 00000KT 6000 FEW015 26/25 Q1009 NOSIG=