SAID32 WADL 181330
METAR WADL 181330Z 27003KT 7000 SCT016 25/24 Q1010 NOSIG=