SAID40 WATS 181400
METAR WATS 181400Z 26006KT 6000 SCT014 29/25 Q1008 RERA=