SAID35 WIKT 181400
METAR WIKT 181400Z 00000KT 7000 SCT020 26/26 Q1009 NOSIG=