SAID40 WATU 181330
METAR WATU 181330Z 24004KT 5000 BKN019 26/25 Q1009 NOSIG=