SAID31 WIMM 181600
METAR WIMM 181600Z 22002KT 7000 SCT018 28/27 Q1009 TEMPO FM1630 3000 -TSRA=