SAID35 WAGB 181600
METAR WAGB 181600Z 00000KT 6000 BKN011 25/25 Q1010 NOSIG=