SAID40 WADB 181600
METAR WADB 181600Z 00000KT 6000 FEW015 26/25 Q1009 NOSIG=