SAID40 WIOP 181600
METAR WIOP 181600Z 10004KT 5000 HZ SCT010 25/24 Q1010=