SAID40 WIMB 181600
METAR WIMB 181600Z 00000KT 6000 FEW016 26/26 Q1010 NOSIG=