SAID31 WARR 181600
METAR WARR 181600Z 28005KT 8000 FEW020 26/25 Q1009 NOSIG=