SAID35 WIMA 181600
METAR WIMA 181600Z 00000KT 6000 FEW017 26/26 Q1009 RERA=