SAID32 WADL 061400

METAR WADL 061400Z 00000KT 7000 SCT016 25/24 Q1011 NOSIG=