SAID32 WADL 062130
METAR WADL 062130Z 18003KT 9000 FEW015CB SCT016 25/23 Q1009 NOSIG RMK CB TO S=