SAID32 WADL 062330
METAR COR WADL 062330Z VRB02KT 9000 FEW016 26/24 Q1009 NOSIG=