SAID32 WADL 061200

METAR WADL 061200Z VRB01KT 7000 FEW016 25/23 Q1010 NOSIG=