SAID32 WADL 061330

METAR WADL 061330Z 00000KT 7000 SCT016 25/23 Q1011 NOSIG=