SAID32 WADL 061600
METAR WADL 061600Z 15002KT 7000 SCT016 26/25 Q1010 NOSIG=