SAID32 WADL 062330
METAR WADL 062330Z VRB02KT 9000 BKN016 26/25 Q1009 NOSIG=