SAID32 WADL 061800
METAR WADL 061800Z 14002KT 9999 SCT016 26/25 Q1009 NOSIG=