SAID32 WADL 070030
METAR WADL 070030Z VRB01KT 8000 BKN016 27/24 Q1010 NOSIG=