SAID32 WADL 061830
METAR WADL 061830Z AUTO 17003KT 9999 FEW054 26/24 Q1008=