SAID32 WADL 070230
METAR WADL 070230Z 19005KT 120V230 8000 BKN016 30/24 Q1010 NOSIG=