SAID32 WADL 070130
METAR WADL 070130Z 19003KT 160V240 8000 BKN016 28/24 Q1010 NOSIG=