SAID32 WADL 062100
METAR WADL 062100Z AUTO 16004KT 9999 SCT049 25/23 Q1008=