SAID32 WADL 070000
METAR WADL 070000Z 15003KT 120V180 8000 SCT016 26/24 Q1010 NOSIG=