SAID32 WADL 061900
METAR WADL 061900Z AUTO VRB01KT 9999 NCD 25/24 Q1008=