SAID32 WADL 061130

METAR WADL 061130Z 12001KT 7000 FEW016 25/22 Q1010 NOSIG=