SAID32 WADL 061530
METAR WADL 061530Z 13003KT 7000 R13/2000 SCT016 26/25 Q1010 NOSIG=