SAID32 WADL 061730
METAR WADL 061730Z 15003KT CAVOK 26/25 Q1009 NOSIG=