SAID32 WADL 062300
METAR COR WADL 062300Z 14004KT 9000 BKN016 25/24 Q1009 NOSIG=