SAID32 WADL 061300

METAR WADL 061300Z 12002KT 7000 SCT016 25/23 Q1010 NOSIG=