SAID32 WADL 062230
METAR WADL 062230Z 17005KT 140V200 9000 FEW015CB BKN016 25/24 Q1009 NOSIG RMK CB TO S=