SAID32 WADL 070200
METAR WADL 070200Z 21003KT 170V250 8000 BKN016 28/25 Q1010 NOSIG=