SAID32 WADL 062200
METAR WADL 062200Z 18003KT 140V200 9000 FEW015CB BKN016 25/23 Q1009 NOSIG RMK CB TO SW=