SAID32 WADL 061230

METAR WADL 061230Z 11002KT 7000 FEW016 25/23 Q1010 NOSIG=