SAID32 WADL 070100
METAR WADL 070100Z 22004KT 120V250 8000 BKN016 28/24 Q1010 NOSIG=